{
    "links": {
        "self": "http://www.neowsapp.com/rest/v1/neo/54049837?api_key=iIulBulltgU6a56xZRHN4H3l9WmuAYTsLGpBGhQ2"
    },
    "id": "54049837",
    "neo_reference_id": "54049837",
    "name": "(2020 OX5)",
    "designation": "2020 OX5",
    "nasa_jpl_url": "http://ssd.jpl.nasa.gov/sbdb.cgi?sstr=54049837",
    "absolute_magnitude_h": 26.908,
    "estimated_diameter": {
        "kilometers": {
            "estimated_diameter_min": 0.0110396417,
            "estimated_diameter_max": 0.0246853892
        },
        "meters": {
            "estimated_diameter_min": 11.0396416579,
            "estimated_diameter_max": 24.6853891943
        },
        "miles": {
            "estimated_diameter_min": 0.0068597132,
            "estimated_diameter_max": 0.015338785
        },
        "feet": {
            "estimated_diameter_min": 36.2192979369,
            "estimated_diameter_max": 80.9888122842
        }
    },
    "is_potentially_hazardous_asteroid": false,
    "close_approach_data": [
        {
            "close_approach_date": "2020-07-31",
            "close_approach_date_full": "2020-Jul-31 18:09",
            "epoch_date_close_approach": 1596218940000,
            "relative_velocity": {
                "kilometers_per_second": "9.2625188163",
                "kilometers_per_hour": "33345.0677387019",
                "miles_per_hour": "20719.3283401951"
            },
            "miss_distance": {
                "astronomical": "0.0173939415",
                "lunar": "6.7662432435",
                "kilometers": "2602096.599304605",
                "miles": "1616867.851649349"
            },
            "orbiting_body": "Earth"
        }
    ],
    "orbital_data": {
        "orbit_id": "4",
        "orbit_determination_date": "2020-10-11 07:08:44",
        "first_observation_date": "2020-07-29",
        "last_observation_date": "2020-07-31",
        "data_arc_in_days": 2,
        "observations_used": 31,
        "orbit_uncertainty": "8",
        "minimum_orbit_intersection": ".000310907",
        "jupiter_tisserand_invariant": "3.754",
        "epoch_osculation": "2459060.5",
        "eccentricity": ".4959590501557897",
        "semi_major_axis": "1.926506117047581",
        "inclination": "4.817748476923845",
        "ascending_node_longitude": "132.4076743264883",
        "orbital_period": "976.6838699571523",
        "perihelion_distance": ".971037973117344",
        "perihelion_argument": "209.6334205211676",
        "aphelion_distance": "2.881974260977818",
        "perihelion_time": "2459089.058624609870",
        "mean_anomaly": "349.4734568924495",
        "mean_motion": ".3685941900686794",
        "equinox": "J2000",
        "orbit_class": {
            "orbit_class_type": "APO",
            "orbit_class_description": "Near-Earth asteroid orbits which cross the Earth’s orbit similar to that of 1862 Apollo",
            "orbit_class_range": "a (semi-major axis) > 1.0 AU; q (perihelion) < 1.017 AU"
        }
    },
    "is_sentry_object": false
}